OBJECT_NAME,OBJECT_ID,EPOCH,MEAN_MOTION,ECCENTRICITY,INCLINATION,RA_OF_ASC_NODE,ARG_OF_PERICENTER,MEAN_ANOMALY,EPHEMERIS_TYPE,CLASSIFICATION_TYPE,NORAD_CAT_ID,ELEMENT_SET_NO,REV_AT_EPOCH,BSTAR,MEAN_MOTION_DOT,MEAN_MOTION_DDOT
INTELSAT 902 (IS-902),2001-039A,2026-07-15T11:25:18.200640,1.00272544,.00042209,6.1857,71.4350,41.7929,301.3181,0,U,26900,999,9097,0,-.297E-5,0
INTELSAT 904 (IS-904),2002-007A,2026-07-15T09:47:54.958272,1.00270592,.0005365,6.9884,68.8417,25.7006,314.2180,0,U,27380,999,5204,0,-.239E-5,0
DIRECTV 5 (TEMPO 1),2002-023A,2026-07-15T14:33:28.570752,1.00271354,.0003098,4.9484,74.9542,46.6638,280.0859,0,U,27426,999,8840,0,-.7E-6,0
INTELSAT 905 (IS-905),2002-027A,2026-07-15T17:51:02.673216,1.00271188,.000344,6.8231,69.4519,47.2275,307.4543,0,U,27438,999,5164,0,.8E-6,0
GALAXY 3C (G-3C),2002-030A,2026-07-15T19:45:46.594080,1.00270773,.0001562,3.8058,77.6036,33.5687,24.1001,0,U,27445,999,4678,0,-.165E-5,0
INTELSAT 906 (IS-906),2002-041A,2026-07-15T18:48:26.004384,1.00273269,.00038,5.8724,72.5671,25.6455,181.6752,0,U,27513,999,8731,0,-.1E-7,0
GALAXY 13 (HORIZONS-1),2003-044A,2026-07-15T17:47:18.032352,1.00271527,.0002133,1.4905,83.4977,31.0500,295.8427,0,U,27954,999,4685,0,.121E-5,0
INTELSAT 10-02,2004-022A,2026-07-15T20:12:31.156128,1.00272272,.0000423,0.0544,252.7692,347.2163,355.8219,0,U,28358,999,8084,0,-.21E-6,0
DIRECTV 8,2005-019A,2026-07-15T17:55:47.216928,1.00270558,.0003192,0.0200,58.2711,72.1736,313.0541,0,U,28659,999,7735,0,0,0
GALAXY 28 (G-28),2005-022A,2026-07-15T18:22:22.167840,1.00271927,.0002506,3.3696,78.5790,27.9998,75.5228,0,U,28702,999,5226,0,-.212E-5,0
GALAXY 16 (G-16),2006-023A,2026-07-15T16:19:15.602016,1.00271358,.0002491,0.0257,162.5439,310.1808,326.6004,0,U,29236,999,7325,0,-.137E-5,0
DIRECTV 9S,2006-043A,2026-07-15T16:18:38.162304,1.00272500,.0004935,2.4923,80.5590,32.4520,323.9686,0,U,29494,999,5166,0,-.125E-5,0
GALAXY 17 (G-17),2007-016B,2026-07-15T14:40:35.390208,1.00271697,.0003564,3.0414,79.5404,34.1674,314.8706,0,U,31307,999,7008,0,-.218E-5,0
INTELSAT 11 (IS-11),2007-044B,2026-07-15T18:30:08.307936,0.99052347,.0004218,3.6378,78.3219,100.4882,32.4064,0,U,32253,999,6873,0,-.181E-5,0
HORIZONS-2,2007-063B,2026-07-15T18:09:00.950400,1.00269066,.0003558,2.6738,80.2741,20.6116,31.1431,0,U,32388,999,6810,0,-.265E-5,0
DIRECTV 11,2008-013A,2026-07-15T12:14:38.600736,1.00271599,.00000802,0.0353,223.2222,348.5472,166.0602,0,U,32729,999,4587,0,-.136E-5,0
GALAXY 18 (G-18),2008-024A,2026-07-15T17:55:02.288928,1.00271620,.0002883,0.0154,61.5477,66.4002,311.3927,0,U,32951,999,4613,0,.15E-6,0
GALAXY 19 (G-19),2008-045A,2026-07-15T16:19:45.555168,1.00270753,.0002324,0.0558,246.5977,237.9621,316.9060,0,U,33376,999,6518,0,-.149E-5,0
FM-5,2009-034A,2026-07-13T21:36:30.896640,1.00271245,.00007579,0.0457,259.5714,86.9227,183.2440,0,U,35493,999,4691,0,-.205E-5,0
INTELSAT 14 (IS-14),2009-064A,2026-07-15T18:17:15.160128,1.00268466,.0002222,0.0162,318.7928,165.3736,38.7348,0,U,36097,999,6089,0,-.284E-5,0
INTELSAT 15 (IS-15),2009-067A,2026-07-15T17:31:38.720928,1.00268580,.0002247,0.0165,355.9876,125.1274,160.4945,0,U,36106,999,4151,0,-.194E-5,0
DIRECTV 12,2009-075A,2026-07-14T23:11:38.372640,1.00271543,.00003517,0.0065,109.4409,121.9560,306.6005,0,U,36131,999,4683,0,-.112E-5,0
INTELSAT 16 (IS-16),2010-006A,2026-07-15T18:08:16.022400,1.00269871,.0002352,0.0115,50.8406,87.2169,351.3901,0,U,36397,999,5994,0,-.255E-5,0
XM-5,2010-053A,2026-07-13T06:37:25.387392,1.00270903,.0001728,0.0648,265.0318,322.3275,47.9546,0,U,37185,999,5774,0,-.26E-6,0
INTELSAT 17 (IS-17),2010-065B,2026-07-15T18:48:55.955808,1.00270787,.0002616,0.0107,117.1998,14.0645,150.5818,0,U,37238,999,5353,0,-.12E-6,0
INTELSAT 28 (IS-28),2011-016A,2026-07-15T09:47:47.469984,1.00272215,.00036738,1.8771,82.2783,39.9840,286.2268,0,U,37392,999,5356,0,-.236E-5,0
INTELSAT 18 (IS-18),2011-056A,2026-07-15T14:13:30.485280,1.00274455,.0001889,0.0273,285.8659,199.7046,201.2331,0,U,37834,999,5409,0,.43E-6,0
INTELSAT 22 (IS-22),2012-011A,2026-07-15T18:50:40.789248,1.00271857,.0001862,0.0145,43.6803,79.5559,165.1557,0,U,38098,999,747,0,-.69E-6,0
INTELSAT 19 (IS-19),2012-030A,2026-07-15T17:34:49.226880,1.00271373,.0003201,0.0171,24.6499,103.4286,235.1949,0,U,38356,999,5073,0,-.67E-6,0
INTELSAT 20 (IS-20),2012-043A,2026-07-15T18:49:40.883808,1.00270704,.0001498,0.0127,66.1493,112.8931,105.5028,0,U,38740,999,5103,0,-.34E-6,0
INTELSAT 21 (IS-21),2012-045A,2026-07-15T18:13:30.519264,1.00272780,.0001538,0.0520,250.4892,235.3860,23.0978,0,U,38749,999,5081,0,-.295E-5,0
