INTELSAT 902 (IS-902)   
1 26900U 01039A   26196.47590510 -.00000297  00000+0  00000+0 0  9992
2 26900   6.1857  71.4350 0004220  41.7929 301.3181  1.00272544 90973
INTELSAT 904 (IS-904)   
1 27380U 02007A   26196.40827498 -.00000239  00000+0  00000+0 0  9998
2 27380   6.9884  68.8417 0005365  25.7006 314.2180  1.00270592 52046
DIRECTV 5 (TEMPO 1)     
1 27426U 02023A   26196.60658068 -.00000070  00000+0  00000+0 0  9997
2 27426   4.9484  74.9542 0003098  46.6638 280.0859  1.00271354 88401
INTELSAT 905 (IS-905)   
1 27438U 02027A   26196.74378094  .00000080  00000+0  00000+0 0  9997
2 27438   6.8231  69.4519 0003440  47.2275 307.4543  1.00271188 51648
GALAXY 3C (G-3C)        
1 27445U 02030A   26196.82345595 -.00000165  00000+0  00000+0 0  9993
2 27445   3.8058  77.6036 0001562  33.5687  24.1001  1.00270773 46783
INTELSAT 906 (IS-906)   
1 27513U 02041A   26196.78363431 -.00000001  00000+0  00000+0 0  9994
2 27513   5.8724  72.5671 0003800  25.6455 181.6752  1.00273269 87311
GALAXY 13 (HORIZONS-1)  
1 27954U 03044A   26196.74118093  .00000121  00000+0  00000+0 0  9997
2 27954   1.4905  83.4977 0002133  31.0500 295.8427  1.00271527 46859
INTELSAT 10-02          
1 28358U 04022A   26196.84202727 -.00000021  00000+0  00000+0 0  9992
2 28358   0.0544 252.7692 0000423 347.2163 355.8219  1.00272272 80845
DIRECTV 8               
1 28659U 05019A   26196.74707427  .00000000  00000+0  00000+0 0  9995
2 28659   0.0200  58.2711 0003192  72.1736 313.0541  1.00270558 77356
GALAXY 28 (G-28)        
1 28702U 05022A   26196.76553435 -.00000212  00000+0  00000+0 0  9994
2 28702   3.3696  78.5790 0002506  27.9998  75.5228  1.00271927 52264
GALAXY 16 (G-16)        
1 29236U 06023A   26196.68004169 -.00000137  00000+0  00000+0 0  9991
2 29236   0.0257 162.5439 0002491 310.1808 326.6004  1.00271358 73250
DIRECTV 9S              
1 29494U 06043A   26196.67960836 -.00000125  00000+0  00000+0 0  9997
2 29494   2.4923  80.5590 0004935  32.4520 323.9686  1.00272500 51666
GALAXY 17 (G-17)        
1 31307U 07016B   26196.61152072 -.00000218  00000+0  00000+0 0  9996
2 31307   3.0414  79.5404 0003564  34.1674 314.8706  1.00271697 70087
INTELSAT 11 (IS-11)     
1 32253U 07044B   26196.77092949 -.00000181  00000+0  00000+0 0  9990
2 32253   3.6378  78.3219 0004218 100.4882  32.4064  0.99052347 68734
HORIZONS-2              
1 32388U 07063B   26196.75626100 -.00000265  00000+0  00000+0 0  9993
2 32388   2.6738  80.2741 0003558  20.6116  31.1431  1.00269066 68109
DIRECTV 11              
1 32729U 08013A   26196.51016899 -.00000136  00000+0  00000+0 0  9997
2 32729   0.0353 223.2222 0000080 348.5472 166.0602  1.00271599 45871
GALAXY 18 (G-18)        
1 32951U 08024A   26196.74655427  .00000015  00000+0  00000+0 0  9992
2 32951   0.0154  61.5477 0002883  66.4002 311.3927  1.00271620 46130
GALAXY 19 (G-19)        
1 33376U 08045A   26196.68038837 -.00000149  00000+0  00000+0 0  9999
2 33376   0.0558 246.5977 0002324 237.9621 316.9060  1.00270753 65183
FM-5                    
1 35493U 09034A   26194.90035760 -.00000205  00000+0  00000+0 0  9998
2 35493   0.0457 259.5714 0000757  86.9227 183.2440  1.00271245 46912
INTELSAT 14 (IS-14)     
1 36097U 09064A   26196.76198102 -.00000284  00000+0  00000+0 0  9995
2 36097   0.0162 318.7928 0002222 165.3736  38.7348  1.00268466 60892
INTELSAT 15 (IS-15)     
1 36106U 09067A   26196.73030927 -.00000194  00000+0  00000+0 0  9996
2 36106   0.0165 355.9876 0002247 125.1274 160.4945  1.00268580 41510
DIRECTV 12              
1 36131U 09075A   26195.96641635 -.00000112  00000+0  00000+0 0  9991
2 36131   0.0065 109.4409 0000351 121.9560 306.6005  1.00271543 46831
INTELSAT 16 (IS-16)     
1 36397U 10006A   26196.75574100 -.00000255  00000+0  00000+0 0  9999
2 36397   0.0115  50.8406 0002352  87.2169 351.3901  1.00269871 59948
XM-5                    
1 37185U 10053A   26194.27598828 -.00000026  00000+0  00000+0 0  9991
2 37185   0.0648 265.0318 0001728 322.3275  47.9546  1.00270903 57741
INTELSAT 17 (IS-17)     
1 37238U 10065B   26196.78398097 -.00000012  00000+0  00000+0 0  9992
2 37238   0.0107 117.1998 0002616  14.0645 150.5818  1.00270787 53530
INTELSAT 28 (IS-28)     
1 37392U 11016A   26196.40818831 -.00000236  00000+0  00000+0 0  9990
2 37392   1.8771  82.2783 0003673  39.9840 286.2268  1.00272215 53565
INTELSAT 18 (IS-18)     
1 37834U 11056A   26196.59271395  .00000043  00000+0  00000+0 0  9998
2 37834   0.0273 285.8659 0001889 199.7046 201.2331  1.00274455 54092
INTELSAT 22 (IS-22)     
1 38098U 12011A   26196.78519432 -.00000069  00000+0  00000+0 0  9990
2 38098   0.0145  43.6803 0001862  79.5559 165.1557  1.00271857  7470
INTELSAT 19 (IS-19)     
1 38356U 12030A   26196.73251420 -.00000067  00000+0  00000+0 0  9991
2 38356   0.0171  24.6499 0003201 103.4286 235.1949  1.00271373 50732
INTELSAT 20 (IS-20)     
1 38740U 12043A   26196.78450097 -.00000034  00000+0  00000+0 0  9992
2 38740   0.0127  66.1493 0001498 112.8931 105.5028  1.00270704 51031
INTELSAT 21 (IS-21)     
1 38749U 12045A   26196.75938101 -.00000295  00000+0  00000+0 0  9996
2 38749   0.0520 250.4892 0001538 235.3860  23.0978  1.00272780 50814
